start=new Date('2023-05-23T00:00:00.000Z').valueOf();
sats=[{"APOAPSIS":"540.911","DECAY_DATE":null,"ELEMENT_SET_NO":"999","LAUNCH_DATE":"2022-10-28","NORAD_CAT_ID":"54175","INCLINATION":"53.2164","TLE_LINE2":"2 54175  53.2164 271.6669 0001759 147.8460 212.2640 15.08856770 31585","TLE_LINE1":"1 54175U 22141U   23142.77895300  .00003190  00000-0  21836-3 0  9999","TIME_SYSTEM":"UTC","BSTAR":"0.00021836000000","EPOCH":"2023-05-22T18:41:41.539200","FILE":"3914964","REV_AT_EPOCH":"3158","COUNTRY_CODE":"US","MEAN_MOTION_DOT":"0.00003190","CLASSIFICATION_TYPE":"U","OBJECT_TYPE":"PAYLOAD","MEAN_ELEMENT_THEORY":"SGP4","REF_FRAME":"TEME","SEMIMAJOR_AXIS":"6917.829","EPHEMERIS_TYPE":"0","RA_OF_ASC_NODE":"271.6669","OBJECT_ID":"2022-141U","PERIOD":"95.436","PERIAPSIS":"538.477","MEAN_MOTION":"15.08856770","CENTER_NAME":"EARTH","ECCENTRICITY":"0.00017590","MEAN_ANOMALY":"212.2640","RCS_SIZE":"LARGE","OBJECT_NAME":"STARLINK-5256","MEAN_MOTION_DDOT":"0.0000000000000","GP_ID":"232360796","SITE":"AFWTR","ARG_OF_PERICENTER":"147.8460"},{"TIME_SYSTEM":"UTC","BSTAR":"0.00007245800000","EPOCH":"2023-05-22T15:09:42.629760","REV_AT_EPOCH":"3156","FILE":"3914964","APOAPSIS":"540.645","DECAY_DATE":null,"LAUNCH_DATE":"2022-10-28","ELEMENT_SET_NO":"999","TLE_LINE1":"1 54176U 22141V   23142.63174340  .00000866  00000-0  72458-4 0  9993","TLE_LINE2":"2 54176  53.2159 272.1727 0001331  71.5839 288.5298 15.08846772 31564","NORAD_CAT_ID":"54176","INCLINATION":"53.2159","CENTER_NAME":"EARTH","PERIAPSIS":"538.804","MEAN_MOTION":"15.08846772","ECCENTRICITY":"0.00013310","GP_ID":"232361046","RCS_SIZE":"LARGE","MEAN_ANOMALY":"288.5298","MEAN_MOTION_DDOT":"0.0000000000000","OBJECT_NAME":"STARLINK-5154","ARG_OF_PERICENTER":"71.5839","SITE":"AFWTR","MEAN_ELEMENT_THEORY":"SGP4","COUNTRY_CODE":"US","MEAN_MOTION_DOT":"0.00000866","OBJECT_TYPE":"PAYLOAD","CLASSIFICATION_TYPE":"U","REF_FRAME":"TEME","EPHEMERIS_TYPE":"0","SEMIMAJOR_AXIS":"6917.860","PERIOD":"95.437","RA_OF_ASC_NODE":"272.1727","OBJECT_ID":"2022-141V"},{"REF_FRAME":"TEME","CLASSIFICATION_TYPE":"U","OBJECT_TYPE":"PAYLOAD","MEAN_MOTION_DOT":"0.00000550","COUNTRY_CODE":"US","MEAN_ELEMENT_THEORY":"SGP4","RA_OF_ASC_NODE":"271.6191","OBJECT_ID":"2022-141W","PERIOD":"95.437","SEMIMAJOR_AXIS":"6917.854","EPHEMERIS_TYPE":"0","ECCENTRICITY":"0.00010520","MEAN_MOTION":"15.08848674","PERIAPSIS":"538.991","CENTER_NAME":"EARTH","SITE":"AFWTR","ARG_OF_PERICENTER":"123.4245","MEAN_MOTION_DDOT":"0.0000000000000","OBJECT_NAME":"STARLINK-5186","RCS_SIZE":"LARGE","MEAN_ANOMALY":"236.6848","GP_ID":"232361297","ELEMENT_SET_NO":"999","LAUNCH_DATE":"2022-10-28","DECAY_DATE":null,"APOAPSIS":"540.447","INCLINATION":"53.2165","NORAD_CAT_ID":"54177","TLE_LINE1":"1 54177U 22141W   23142.77158589  .00000550  00000-0  52607-4 0  9990","TLE_LINE2":"2 54177  53.2165 271.6191 0001052 123.4245 236.6848 15.08848674 31589","BSTAR":"0.00005260700000","TIME_SYSTEM":"UTC","FILE":"3914964","REV_AT_EPOCH":"3158","EPOCH":"2023-05-22T18:31:05.020896"},{"MEAN_MOTION":"15.08859077","PERIAPSIS":"539.026","CENTER_NAME":"EARTH","ECCENTRICITY":"0.00009550","OBJECT_NAME":"STARLINK-5164","MEAN_MOTION_DDOT":"0.0000000000000","MEAN_ANOMALY":"291.1245","RCS_SIZE":"LARGE","GP_ID":"232362033","SITE":"AFWTR","ARG_OF_PERICENTER":"68.9849","CLASSIFICATION_TYPE":"U","OBJECT_TYPE":"PAYLOAD","COUNTRY_CODE":"US","MEAN_MOTION_DOT":"0.00008656","MEAN_ELEMENT_THEORY":"SGP4","REF_FRAME":"TEME","SEMIMAJOR_AXIS":"6917.822","EPHEMERIS_TYPE":"0","RA_OF_ASC_NODE":"272.1317","OBJECT_ID":"2022-141X","PERIOD":"95.436","BSTAR":"0.00056097000000","TIME_SYSTEM":"UTC","EPOCH":"2023-05-22T15:05:46.667904","FILE":"3914964","REV_AT_EPOCH":"3156","DECAY_DATE":null,"APOAPSIS":"540.348","ELEMENT_SET_NO":"999","LAUNCH_DATE":"2022-10-28","INCLINATION":"53.2158","NORAD_CAT_ID":"54178","TLE_LINE2":"2 54178  53.2158 272.1317 0000955  68.9849 291.1245 15.08859077 31566","TLE_LINE1":"1 54178U 22141X   23142.62901236  .00008656  00000-0  56097-3 0  9991"},{"TLE_LINE1":"1 54179U 22141Y   23142.63542295  .00002434  00000-0  17089-3 0  9995","TLE_LINE2":"2 54179  53.2159 272.1933 0001081 100.9209 259.1905 15.08853860 31561","INCLINATION":"53.2159","NORAD_CAT_ID":"54179","DECAY_DATE":null,"APOAPSIS":"540.451","LAUNCH_DATE":"2022-10-28","ELEMENT_SET_NO":"999","EPOCH":"2023-05-22T15:15:00.542880","REV_AT_EPOCH":"3156","FILE":"3914964","BSTAR":"0.00017089000000","TIME_SYSTEM":"UTC","EPHEMERIS_TYPE":"0","SEMIMAJOR_AXIS":"6917.838","PERIOD":"95.437","RA_OF_ASC_NODE":"272.1933","OBJECT_ID":"2022-141Y","MEAN_ELEMENT_THEORY":"SGP4","CLASSIFICATION_TYPE":"U","OBJECT_TYPE":"PAYLOAD","COUNTRY_CODE":"US","MEAN_MOTION_DOT":"0.00002434","REF_FRAME":"TEME","GP_ID":"232360297","OBJECT_NAME":"STARLINK-5122","MEAN_MOTION_DDOT":"0.0000000000000","RCS_SIZE":"LARGE","MEAN_ANOMALY":"259.1905","ARG_OF_PERICENTER":"100.9209","SITE":"AFWTR","CENTER_NAME":"EARTH","MEAN_MOTION":"15.08853860","PERIAPSIS":"538.955","ECCENTRICITY":"0.00010810"},{"LAUNCH_DATE":"2022-10-28","ELEMENT_SET_NO":"999","APOAPSIS":"540.487","DECAY_DATE":null,"TLE_LINE1":"1 54180U 22141Z   23142.67955603  .00002839  00000-0  19633-3 0  9998","TLE_LINE2":"2 54180  53.2165 271.7639 0001126  78.4789 281.6329 15.08852197 31573","NORAD_CAT_ID":"54180","INCLINATION":"53.2165","TIME_SYSTEM":"UTC","BSTAR":"0.00019633000000","REV_AT_EPOCH":"3157","FILE":"3914964","EPOCH":"2023-05-22T16:18:33.640992","REF_FRAME":"TEME","MEAN_ELEMENT_THEORY":"SGP4","MEAN_MOTION_DOT":"0.00002839","COUNTRY_CODE":"US","CLASSIFICATION_TYPE":"U","OBJECT_TYPE":"PAYLOAD","PERIOD":"95.437","OBJECT_ID":"2022-141Z","RA_OF_ASC_NODE":"271.7639","EPHEMERIS_TYPE":"0","SEMIMAJOR_AXIS":"6917.843","ECCENTRICITY":"0.00011260","CENTER_NAME":"EARTH","PERIAPSIS":"538.929","MEAN_MOTION":"15.08852197","ARG_OF_PERICENTER":"78.4789","SITE":"AFWTR","GP_ID":"232360547","RCS_SIZE":"LARGE","MEAN_ANOMALY":"281.6329","OBJECT_NAME":"STARLINK-5228","MEAN_MOTION_DDOT":"0.0000000000000"},{"BSTAR":"0.00019884000000","TIME_SYSTEM":"UTC","REV_AT_EPOCH":"3156","FILE":"3914964","EPOCH":"2023-05-22T14:59:06.152064","LAUNCH_DATE":"2022-10-28","ELEMENT_SET_NO":"999","DECAY_DATE":null,"APOAPSIS":"540.518","TLE_LINE2":"2 54181  53.2157 272.1284 0001134  70.6960 289.4155 15.08843757 31564","TLE_LINE1":"1 54181U 22141AA  23142.62437676  .00002878  00000-0  19884-3 0  9990","INCLINATION":"53.2157","NORAD_CAT_ID":"54181","ECCENTRICITY":"0.00011340","CENTER_NAME":"EARTH","MEAN_MOTION":"15.08843757","PERIAPSIS":"538.949","ARG_OF_PERICENTER":"70.6960","SITE":"AFWTR","GP_ID":"232361797","MEAN_MOTION_DDOT":"0.0000000000000","OBJECT_NAME":"STARLINK-5227","RCS_SIZE":"LARGE","MEAN_ANOMALY":"289.4155","REF_FRAME":"TEME","MEAN_ELEMENT_THEORY":"SGP4","OBJECT_TYPE":"PAYLOAD","CLASSIFICATION_TYPE":"U","MEAN_MOTION_DOT":"0.00002878","COUNTRY_CODE":"US","PERIOD":"95.437","OBJECT_ID":"2022-141AA","RA_OF_ASC_NODE":"272.1284","EPHEMERIS_TYPE":"0","SEMIMAJOR_AXIS":"6917.869"},{"INCLINATION":"53.2155","NORAD_CAT_ID":"54182","TLE_LINE2":"2 54182  53.2155 242.4697 0000466  98.1545 261.9500 15.08835437 31972","TLE_LINE1":"1 54182U 22141AB  23142.55081029 -.00000029  00000-0  16256-4 0  9998","ELEMENT_SET_NO":"999","LAUNCH_DATE":"2022-10-28","DECAY_DATE":null,"APOAPSIS":"540.082","FILE":"3914693","REV_AT_EPOCH":"3197","EPOCH":"2023-05-22T13:13:10.009056","BSTAR":"0.00001625600000","TIME_SYSTEM":"UTC","RA_OF_ASC_NODE":"242.4697","OBJECT_ID":"2022-141AB","PERIOD":"95.438","SEMIMAJOR_AXIS":"6917.894","EPHEMERIS_TYPE":"0","REF_FRAME":"TEME","OBJECT_TYPE":"PAYLOAD","CLASSIFICATION_TYPE":"U","MEAN_MOTION_DOT":"-0.00000029","COUNTRY_CODE":"US","MEAN_ELEMENT_THEORY":"SGP4","SITE":"AFWTR","ARG_OF_PERICENTER":"98.1545","MEAN_MOTION_DDOT":"0.0000000000000","OBJECT_NAME":"STARLINK-5231","RCS_SIZE":"LARGE","MEAN_ANOMALY":"261.9500","GP_ID":"232326783","ECCENTRICITY":"0.00004660","MEAN_MOTION":"15.08835437","PERIAPSIS":"539.437","CENTER_NAME":"EARTH"},{"BSTAR":"0.00150940000000","TIME_SYSTEM":"UTC","REV_AT_EPOCH":"3157","FILE":"3914964","EPOCH":"2023-05-22T16:23:52.568448","LAUNCH_DATE":"2022-10-28","ELEMENT_SET_NO":"999","DECAY_DATE":null,"APOAPSIS":"540.228","TLE_LINE1":"1 54183U 22141AC  23142.68324732  .00023834  00000-0  15094-2 0  9999","TLE_LINE2":"2 54183  53.2160 271.7837 0000822  98.9204 261.1881 15.08868012 31571","INCLINATION":"53.2160","NORAD_CAT_ID":"54183","ECCENTRICITY":"0.00008220","CENTER_NAME":"EARTH","MEAN_MOTION":"15.08868012","PERIAPSIS":"539.091","ARG_OF_PERICENTER":"98.9204","SITE":"AFWTR","GP_ID":"232360797","MEAN_MOTION_DDOT":"0.0000000000000","OBJECT_NAME":"STARLINK-5239","RCS_SIZE":"LARGE","MEAN_ANOMALY":"261.1881","REF_FRAME":"TEME","MEAN_ELEMENT_THEORY":"SGP4","CLASSIFICATION_TYPE":"U","OBJECT_TYPE":"PAYLOAD","MEAN_MOTION_DOT":"0.00023834","COUNTRY_CODE":"US","PERIOD":"95.436","OBJECT_ID":"2022-141AC","RA_OF_ASC_NODE":"271.7837","EPHEMERIS_TYPE":"0","SEMIMAJOR_AXIS":"6917.795"},{"FILE":"3914964","REV_AT_EPOCH":"3157","EPOCH":"2023-05-22T16:13:15.716640","BSTAR":"0.00157090000000","TIME_SYSTEM":"UTC","INCLINATION":"53.2157","NORAD_CAT_ID":"54184","TLE_LINE2":"2 54184  53.2157 271.7388 0000839 115.4271 244.6808 15.08866698 31579","TLE_LINE1":"1 54184U 22141AD  23142.67587635  .00024820  00000-0  15709-2 0  9991","ELEMENT_SET_NO":"999","LAUNCH_DATE":"2022-10-28","DECAY_DATE":null,"APOAPSIS":"540.244","SITE":"AFWTR","ARG_OF_PERICENTER":"115.4271","MEAN_MOTION_DDOT":"0.0000000000000","OBJECT_NAME":"STARLINK-5162","MEAN_ANOMALY":"244.6808","RCS_SIZE":"LARGE","GP_ID":"232361047","ECCENTRICITY":"0.00008390","MEAN_MOTION":"15.08866698","PERIAPSIS":"539.083","CENTER_NAME":"EARTH","RA_OF_ASC_NODE":"271.7388","OBJECT_ID":"2022-141AD","PERIOD":"95.436","SEMIMAJOR_AXIS":"6917.799","EPHEMERIS_TYPE":"0","REF_FRAME":"TEME","OBJECT_TYPE":"PAYLOAD","CLASSIFICATION_TYPE":"U","COUNTRY_CODE":"US","MEAN_MOTION_DOT":"0.00024820","MEAN_ELEMENT_THEORY":"SGP4"}];
